NOAA 15                 
1 25338U 98030A   24165.58956148  .00000329  00000+0  15416-3 0  9998
2 25338  98.5682 192.7916 0009765 342.0048  18.0785 14.26601876356671
NOAA 18                 
1 28654U 05018A   24165.52653500  .00000297  00000+0  18183-3 0  9994
2 28654  98.8743 242.5217 0015253  75.7605 284.5260 14.13229945982652
NOAA 19                 
1 33591U 09005A   24165.61899641  .00000258  00000+0  16249-3 0  9996
2 33591  99.0470 221.3805 0012862 304.6151  55.3807 14.13025692790863
METOP-B                 
1 38771U 12049A   24165.58345913  .00000191  00000+0  10706-3 0  9995
2 38771  98.6272 222.8880 0001695  77.9591 282.1776 14.21551943609048
SARAL                   
1 39086U 13009A   24165.58766713  .00000197  00000+0  88789-4 0  9990
2 39086  98.5511 350.7528 0000975 327.1102  33.0021 14.32427807590566
METOP-C                 
1 43689U 18087A   24165.62182330  .00000122  00000+0  75772-4 0  9993
2 43689  98.7233 224.9405 0003162  98.3103 261.8432 14.21473114290618
ANGELS                  
1 44876U 19092D   24165.47731500  .00007504  00000+0  28523-3 0  9993
2 44876  97.4752 354.0325 0009040 341.4229  18.6678 15.27048391248791
OTB-3-GAZELLE           
1 54023U 22127A   24165.58180517  .00000301  00000+0  10442-3 0  9998
2 54023  98.3425 159.9634 0012148 239.7685 120.2303 14.42110819 88604
EOS-6 (OCEANSAT-3)      
1 54361U 22158A   24165.56003614  .00000593  00000+0  17515-3 0  9998
2 54361  98.3525 262.6367 0001160 116.4172 243.7139 14.46996630 81742
